CCSDS_OMM_VERS = 2.0
CREATION_DATE  = 
ORIGINATOR     = 

OBJECT_NAME    = SL-3 R/B
OBJECT_ID      = 1982-079B
CENTER_NAME    = EARTH
REF_FRAME      = TEME
TIME_SYSTEM    = UTC
MEAN_ELEMENT_THEORY = SGP/SGP4

EPOCH          = 2026-02-20T17:37:39.734688
MEAN_MOTION    = 15.24517372
ECCENTRICITY   = .0024356
INCLINATION    = 81.1455
RA_OF_ASC_NODE = 213.0921
ARG_OF_PERICENTER = 222.3188
MEAN_ANOMALY   = 137.6167

EPHEMERIS_TYPE = 0
CLASSIFICATION_TYPE = U
NORAD_CAT_ID   = 13403
ELEMENT_SET_NO = 999
REV_AT_EPOCH   = 37511
BSTAR          = .2342E-3
MEAN_MOTION_DOT = .5833E-4
MEAN_MOTION_DDOT = 0

CCSDS_OMM_VERS = 2.0
CREATION_DATE  = 
ORIGINATOR     = 

OBJECT_NAME    = SL-14 R/B
OBJECT_ID      = 1982-092B
CENTER_NAME    = EARTH
REF_FRAME      = TEME
TIME_SYSTEM    = UTC
MEAN_ELEMENT_THEORY = SGP/SGP4

EPOCH          = 2026-02-20T18:13:26.040288
MEAN_MOTION    = 14.86646972
ECCENTRICITY   = .0020272
INCLINATION    = 82.5712
RA_OF_ASC_NODE = 157.2308
ARG_OF_PERICENTER = 1.8187
MEAN_ANOMALY   = 111.6778

EPHEMERIS_TYPE = 0
CLASSIFICATION_TYPE = U
NORAD_CAT_ID   = 13553
ELEMENT_SET_NO = 999
REV_AT_EPOCH   = 32641
BSTAR          = .49114E-4
MEAN_MOTION_DOT = .462E-5
MEAN_MOTION_DDOT = 0

CCSDS_OMM_VERS = 2.0
CREATION_DATE  = 
ORIGINATOR     = 

OBJECT_NAME    = SL-3 R/B
OBJECT_ID      = 1983-010B
CENTER_NAME    = EARTH
REF_FRAME      = TEME
TIME_SYSTEM    = UTC
MEAN_ELEMENT_THEORY = SGP/SGP4

EPOCH          = 2026-02-20T09:57:42.091200
MEAN_MOTION    = 15.45682961
ECCENTRICITY   = .0018627
INCLINATION    = 81.1043
RA_OF_ASC_NODE = 23.4135
ARG_OF_PERICENTER = 105.3176
MEAN_ANOMALY   = 255.0129

EPHEMERIS_TYPE = 0
CLASSIFICATION_TYPE = U
NORAD_CAT_ID   = 13819
ELEMENT_SET_NO = 999
REV_AT_EPOCH   = 35527
BSTAR          = .26358E-3
MEAN_MOTION_DOT = .12836E-3
MEAN_MOTION_DDOT = 0

CCSDS_OMM_VERS = 2.0
CREATION_DATE  = 
ORIGINATOR     = 

OBJECT_NAME    = SL-3 R/B
OBJECT_ID      = 1983-075B
CENTER_NAME    = EARTH
REF_FRAME      = TEME
TIME_SYSTEM    = UTC
MEAN_ELEMENT_THEORY = SGP/SGP4

EPOCH          = 2026-02-20T16:59:32.372448
MEAN_MOTION    = 15.37958998
ECCENTRICITY   = .0019831
INCLINATION    = 97.6136
RA_OF_ASC_NODE = 55.6497
ARG_OF_PERICENTER = 292.9114
MEAN_ANOMALY   = 67.0037

EPHEMERIS_TYPE = 0
CLASSIFICATION_TYPE = U
NORAD_CAT_ID   = 14208
ELEMENT_SET_NO = 999
REV_AT_EPOCH   = 32754
BSTAR          = .27696E-3
MEAN_MOTION_DOT = .10321E-3
MEAN_MOTION_DDOT = 0

CCSDS_OMM_VERS = 2.0
CREATION_DATE  = 
ORIGINATOR     = 

OBJECT_NAME    = COSMOS 1536
OBJECT_ID      = 1984-013A
CENTER_NAME    = EARTH
REF_FRAME      = TEME
TIME_SYSTEM    = UTC
MEAN_ELEMENT_THEORY = SGP/SGP4

EPOCH          = 2026-02-20T15:29:09.611232
MEAN_MOTION    = 15.23575175
ECCENTRICITY   = .0013728
INCLINATION    = 82.5457
RA_OF_ASC_NODE = 124.7890
ARG_OF_PERICENTER = 348.5018
MEAN_ANOMALY   = 11.5903

EPHEMERIS_TYPE = 0
CLASSIFICATION_TYPE = U
NORAD_CAT_ID   = 14699
ELEMENT_SET_NO = 999
REV_AT_EPOCH   = 27002
BSTAR          = .18914E-3
MEAN_MOTION_DOT = .4566E-4
MEAN_MOTION_DDOT = 0

CCSDS_OMM_VERS = 2.0
CREATION_DATE  = 
ORIGINATOR     = 

OBJECT_NAME    = SL-14 R/B
OBJECT_ID      = 1984-027B
CENTER_NAME    = EARTH
REF_FRAME      = TEME
TIME_SYSTEM    = UTC
MEAN_ELEMENT_THEORY = SGP/SGP4

EPOCH          = 2026-02-20T15:45:36.999936
MEAN_MOTION    = 14.85957742
ECCENTRICITY   = .0018808
INCLINATION    = 82.5384
RA_OF_ASC_NODE = 260.9920
ARG_OF_PERICENTER = 33.9954
MEAN_ANOMALY   = 326.2463

EPHEMERIS_TYPE = 0
CLASSIFICATION_TYPE = U
NORAD_CAT_ID   = 14820
ELEMENT_SET_NO = 999
REV_AT_EPOCH   = 24510
BSTAR          = .40074E-4
MEAN_MOTION_DOT = .375E-5
MEAN_MOTION_DDOT = 0

CCSDS_OMM_VERS = 2.0
CREATION_DATE  = 
ORIGINATOR     = 

OBJECT_NAME    = SL-8 R/B
OBJECT_ID      = 1985-006B
CENTER_NAME    = EARTH
REF_FRAME      = TEME
TIME_SYSTEM    = UTC
MEAN_ELEMENT_THEORY = SGP/SGP4

EPOCH          = 2026-02-20T18:00:52.394688
MEAN_MOTION    = 14.37774014
ECCENTRICITY   = .0019109
INCLINATION    = 74.0451
RA_OF_ASC_NODE = 292.3195
ARG_OF_PERICENTER = 213.7266
MEAN_ANOMALY   = 210.1719

EPHEMERIS_TYPE = 0
CLASSIFICATION_TYPE = U
NORAD_CAT_ID   = 15483
ELEMENT_SET_NO = 999
REV_AT_EPOCH   = 15159
BSTAR          = .53069E-4
MEAN_MOTION_DOT = .134E-5
MEAN_MOTION_DDOT = 0

CCSDS_OMM_VERS = 2.0
CREATION_DATE  = 
ORIGINATOR     = 

OBJECT_NAME    = SL-12 R/B(2)
OBJECT_ID      = 1985-042D
CENTER_NAME    = EARTH
REF_FRAME      = TEME
TIME_SYSTEM    = UTC
MEAN_ELEMENT_THEORY = SGP/SGP4

EPOCH          = 2026-02-20T16:20:59.604288
MEAN_MOTION    = 14.21977541
ECCENTRICITY   = .0034162
INCLINATION    = 71.1079
RA_OF_ASC_NODE = 123.6644
ARG_OF_PERICENTER = 155.7337
MEAN_ANOMALY   = 320.4909

EPHEMERIS_TYPE = 0
CLASSIFICATION_TYPE = U
NORAD_CAT_ID   = 15772
ELEMENT_SET_NO = 999
REV_AT_EPOCH   = 11197
BSTAR          = .87288E-4
MEAN_MOTION_DOT = .146E-5
MEAN_MOTION_DDOT = 0

CCSDS_OMM_VERS = 2.0
CREATION_DATE  = 
ORIGINATOR     = 

OBJECT_NAME    = SL-14 R/B
OBJECT_ID      = 1985-069B
CENTER_NAME    = EARTH
REF_FRAME      = TEME
TIME_SYSTEM    = UTC
MEAN_ELEMENT_THEORY = SGP/SGP4

EPOCH          = 2026-02-20T10:40:18.483168
MEAN_MOTION    = 14.86410949
ECCENTRICITY   = .0017257
INCLINATION    = 82.5252
RA_OF_ASC_NODE = 41.1503
ARG_OF_PERICENTER = 247.9796
MEAN_ANOMALY   = 111.9588

EPHEMERIS_TYPE = 0
CLASSIFICATION_TYPE = U
NORAD_CAT_ID   = 15945
ELEMENT_SET_NO = 999
REV_AT_EPOCH   = 17027
BSTAR          = .50421E-4
MEAN_MOTION_DOT = .47E-5
MEAN_MOTION_DDOT = 0

CCSDS_OMM_VERS = 2.0
CREATION_DATE  = 
ORIGINATOR     = 

OBJECT_NAME    = SL-16 R/B
OBJECT_ID      = 1985-097B
CENTER_NAME    = EARTH
REF_FRAME      = TEME
TIME_SYSTEM    = UTC
MEAN_ELEMENT_THEORY = SGP/SGP4

EPOCH          = 2026-02-20T16:39:46.612800
MEAN_MOTION    = 14.16594803
ECCENTRICITY   = .0009706
INCLINATION    = 71.0031
RA_OF_ASC_NODE = 176.3315
ARG_OF_PERICENTER = 279.1080
MEAN_ANOMALY   = 181.7983

EPHEMERIS_TYPE = 0
CLASSIFICATION_TYPE = U
NORAD_CAT_ID   = 16182
ELEMENT_SET_NO = 999
REV_AT_EPOCH   = 8482
BSTAR          = .92069E-4
MEAN_MOTION_DOT = .136E-5
MEAN_MOTION_DDOT = 0

CCSDS_OMM_VERS = 2.0
CREATION_DATE  = 
ORIGINATOR     = 

OBJECT_NAME    = SL-14 R/B
OBJECT_ID      = 1986-006B
CENTER_NAME    = EARTH
REF_FRAME      = TEME
TIME_SYSTEM    = UTC
MEAN_ELEMENT_THEORY = SGP/SGP4

EPOCH          = 2026-02-20T16:41:26.200896
MEAN_MOTION    = 14.86791160
ECCENTRICITY   = .0075873
INCLINATION    = 82.5246
RA_OF_ASC_NODE = 275.7347
ARG_OF_PERICENTER = 330.1014
MEAN_ANOMALY   = 29.5878

EPHEMERIS_TYPE = 0
CLASSIFICATION_TYPE = U
NORAD_CAT_ID   = 16496
ELEMENT_SET_NO = 999
REV_AT_EPOCH   = 14668
BSTAR          = .54044E-4
MEAN_MOTION_DOT = .533E-5
MEAN_MOTION_DDOT = 0

CCSDS_OMM_VERS = 2.0
CREATION_DATE  = 
ORIGINATOR     = 

OBJECT_NAME    = COSMOS 1743
OBJECT_ID      = 1986-034A
CENTER_NAME    = EARTH
REF_FRAME      = TEME
TIME_SYSTEM    = UTC
MEAN_ELEMENT_THEORY = SGP/SGP4

EPOCH          = 2026-02-20T13:20:54.555936
MEAN_MOTION    = 15.57239063
ECCENTRICITY   = .0003907
INCLINATION    = 82.5301
RA_OF_ASC_NODE = 91.7951
ARG_OF_PERICENTER = 16.7330
MEAN_ANOMALY   = 343.4053

EPHEMERIS_TYPE = 0
CLASSIFICATION_TYPE = U
NORAD_CAT_ID   = 16719
ELEMENT_SET_NO = 999
REV_AT_EPOCH   = 17758
BSTAR          = .40603E-3
MEAN_MOTION_DOT = .29659E-3
MEAN_MOTION_DDOT = 0

