SL-3 R/B                
1 13403U 82079B   26051.73448767  .00005833  00000+0  23420-3 0  9999
2 13403  81.1455 213.0921 0024356 222.3188 137.6167 15.24517372375116
SL-14 R/B               
1 13553U 82092B   26051.75932917  .00000462  00000+0  49114-4 0  9999
2 13553  82.5712 157.2308 0020272   1.8187 111.6778 14.86646972326418
SL-3 R/B                
1 13819U 83010B   26051.41507050  .00012836  00000+0  26358-3 0  9996
2 13819  81.1043  23.4135 0018627 105.3176 255.0129 15.45682961355279
SL-3 R/B                
1 14208U 83075B   26051.70801357  .00010321  00000+0  27696-3 0  9992
2 14208  97.6136  55.6497 0019831 292.9114  67.0037 15.37958998327543
COSMOS 1536             
1 14699U 84013A   26051.64525013  .00004566  00000+0  18914-3 0  9991
2 14699  82.5457 124.7890 0013728 348.5018  11.5903 15.23575175270024
SL-14 R/B               
1 14820U 84027B   26051.65667824  .00000375  00000+0  40074-4 0  9997
2 14820  82.5384 260.9920 0018808  33.9954 326.2463 14.85957742245103
SL-8 R/B                
1 15483U 85006B   26051.75060642  .00000134  00000+0  53069-4 0  9998
2 15483  74.0451 292.3195 0019109 213.7266 210.1719 14.37774014151592
SL-12 R/B(2)            
1 15772U 85042D   26051.68124542  .00000146  00000+0  87288-4 0  9994
2 15772  71.1079 123.6644 0034162 155.7337 320.4909 14.21977541111979
SL-14 R/B               
1 15945U 85069B   26051.44465837  .00000470  00000+0  50421-4 0  9993
2 15945  82.5252  41.1503 0017257 247.9796 111.9588 14.86410949170276
SL-16 R/B               
1 16182U 85097B   26051.69428950  .00000136  00000+0  92069-4 0  9993
2 16182  71.0031 176.3315 0009706 279.1080 181.7983 14.16594803 84827
SL-14 R/B               
1 16496U 86006B   26051.69544214  .00000533  00000+0  54044-4 0  9996
2 16496  82.5246 275.7347 0075873 330.1014  29.5878 14.86791160146689
COSMOS 1743             
1 16719U 86034A   26051.55618699  .00029659  00000+0  40603-3 0  9994
2 16719  82.5301  91.7951 0003907  16.7330 343.4053 15.57239063177587
